298P/Christensen,e,7.8723,52.7863,100.6191,3.588156,0.1450097,0.38690228,248.6631,05/18.0/2025,2000,g 15.0,4.0
# From MPEC 2024-TD8
299P/Catalina-PANSTARRS,e,10.4690,271.5805,323.6213,4.388817,0.1071971,0.28093406,41.0535,05/18.0/2025,2000,g 11.5,4.0
# From MPEC 2023-VM5
300P/Catalina,e,5.6766,95.6224,222.8797,2.696383,0.2226033,0.69206369,170.9573,05/18.0/2025,2000,g 16.0,4.0
# From MPC 89014
301P/LINEAR-NEAT,e,10.3288,351.0630,193.4352,5.751580,0.0714535,0.58620798,281.7469,05/18.0/2025,2000,g 13.0,4.0
# From MPEC 2024-YC7
302P/Lemmon-PANSTARRS,e,6.0357,121.7155,208.6257,4.267380,0.1118052,0.22935682,7.7816,05/18.0/2025,2000,g 12.5,4.0
# From MPC 92278
303P/NEAT,e,7.0162,347.9497,357.0290,5.039973,0.0871087,0.51028558,335.7913,05/18.0/2025,2000,g 13.5,4.0
# From MPEC 2022-K19
304P/Ory,e,2.6057,58.9382,335.2786,3.149704,0.1763191,0.60085122,306.3644,05/18.0/2025,2000,g 16.5,4.0
# From MPC182890
305P/Skiff,e,11.6708,240.1009,147.4069,4.636582,0.0987205,0.69409238,17.9532,05/18.0/2025,2000,g 18.0,4.0
# From MPC 92278
306P/LINEAR,e,8.3029,341.3521,0.8965,3.124468,0.1784596,0.59257825,346.5001,05/18.0/2025,2000,g 19.0,4.0
# From MPC 92278
307P/LINEAR,e,4.4346,158.1151,222.2526,5.788045,0.0707793,0.67502586,268.3949,05/18.0/2025,2000,g 15.0,4.0
# From MPEC 2022-C56
308P/Lagerkvist-Carsenty,e,4.8522,63.0992,333.7568,6.601236,0.0581120,0.36417769,212.4283,05/18.0/2025,2000,g 13.0,2.0
# From MPEC 2025-GB9
309P/LINEAR,e,17.0200,10.1386,49.9172,4.374619,0.1077193,0.61822553,44.7087,05/18.0/2025,2000,g 15.0,4.0
# From MPC182891
310P/Hill,e,13.1201,8.8836,31.5196,4.181051,0.1152858,0.42208740,66.0416,05/18.0/2025,2000,g 13.5,4.0
# From MPEC 2025-J72
311P/PANSTARRS,e,4.9712,279.1691,144.2882,2.188670,0.3043924,0.11550228,152.8388,05/18.0/2025,2000,g 17.0,4.0
# From MPEC 2024-NE4
312P/NEAT,e,19.7462,144.6366,207.6992,3.472398,0.1523210,0.42668419,258.4802,05/18.0/2025,2000,g 16.0,4.0
# From MPEC 2024-N80
313P/Gibbs,e,10.9810,105.9253,254.9828,3.163365,0.1751782,0.23448022,325.1878,05/18.0/2025,2000,g 15.0,4.0
# From MPC105243
314P/Montani,e,3.9920,267.6229,213.8635,7.249187,0.0504975,0.41854760,158.4874,05/18.0/2025,2000,g  9.5,4.0
# From MPEC 2023-J29
315P/LONEOS,e,17.7347,68.6407,65.9107,4.936294,0.0898675,0.52206810,277.9936,05/18.0/2025,2000,g 11.0,4.0
# From MPC182891
316P/LONEOS-Christensen,e,9.8753,245.8936,187.1069,4.409457,0.1064453,0.15681379,23.9302,05/18.0/2025,2000,g 13.5,4.0
# From MPEC 2020-C98
317P/WISE,e,11.9748,275.4730,334.8861,2.959564,0.1935809,0.57201419,327.8919,05/18.0/2025,2000,g 17.5,4.0
# From MPC102103
318P/McNaught-Hartley,e,17.8650,35.6037,313.3046,7.514612,0.0478458,0.67331208,167.2352,05/18.0/2025,2000,g  8.5,6.0
# From MPEC 2025-HB5
319P/Catalina-McNaught,e,15.0964,111.3646,203.5983,3.562627,0.1465711,0.66638760,167.7355,05/18.0/2025,2000,g 15.0,4.0
# From MPC 96281
320P/McNaught,e,4.9028,295.9404,0.7568,3.095926,0.1809332,0.68488360,286.5650,05/18.0/2025,2000,g 20.5,4.0
# From MPC105243
321P/SOHO,e,20.0548,165.0265,172.7404,2.422059,0.2614730,0.98100528,0.0000,10/26.5128/2023,2000,g 20.0,4.0
# From MPC102103
322P/SOHO,e,11.4492,351.3517,57.0699,2.508653,0.2480523,0.97993277,0.0000,08/21.1592/2023,2000,g 19.0,4.0
# From MPC182891
323P/SOHO,e,5.2109,323.9493,353.3248,2.440144,0.2585716,0.98344646,0.0000,03/14.2309/2025,2000,g 20.0,4.0
# From MPEC 2024-F21
323P-B/SOHO,e,5.4601,323.4630,353.9657,2.890016,0.2006105,0.98612219,0.0000,12/16.2415/2025,2000,g 26.0,4.0
# From MPEC 2024-F21
323P-C/SOHO,e,5.3374,324.1895,353.2114,2.612046,0.2334709,0.98476575,0.0000,04/07.1006/2025,2000,g 27.0,4.0
# From MPEC 2021-W31
324P/LaSagra,e,21.3992,270.5692,57.4242,3.097217,0.1808200,0.15280799,266.9171,05/18.0/2025,2000,g 13.0,4.0
# From MPEC 2024-LE0
325P/Yang-Gao,e,16.8476,256.8567,344.9190,3.549273,0.1473992,0.58728083,169.6176,05/18.0/2025,2000,g 14.0,4.0
# From MPEC 2024-LE0
326P/Hill,e,2.4737,99.7605,278.1075,4.064598,0.1202757,0.32048245,60.9229,05/18.0/2025,2000,g 13.5,4.0
# From MPEC 2024-M41
327P/VanNess,e,36.2315,173.9984,185.0409,3.563016,0.1465472,0.56253352,144.9509,05/18.0/2025,2000,g 16.0,4.0
# From MPEC 2024-YC7
328P/LONEOS-Tucker,e,17.6776,341.5553,30.6783,4.190651,0.1148899,0.55313055,33.7845,05/18.0/2025,2000,g 14.5,4.0
# From MPC101101
329P/LINEAR-Catalina,e,21.7189,87.6876,343.6003,5.182206,0.0835472,0.67888224,288.0995,05/18.0/2025,2000,g 13.5,4.0
# From MPEC 2023-J29
330P/Catalina,e,15.7397,293.0835,188.8354,6.615254,0.0579274,0.55054976,184.3355,05/18.0/2025,2000,g 12.0,4.0
# From MPEC 2024-Q20
331P/Gibbs,e,9.7407,216.7426,185.5807,3.002995,0.1893966,0.04144401,318.2362,05/18.0/2025,2000,g 12.0,4.0
# From MPEC 2016-K18
332P/Ikeya-Murakami,e,9.3857,3.7544,152.2971,3.086108,0.1817973,0.48982892,248.7891,05/18.0/2025,2000,g 18.0,4.0
# From MPEC 2016-K18
332P-A/Ikeya-Murakami,e,9.3856,152.3144,3.7380,3.086091,0.1817988,0.48983630,248.7879,05/18.0/2025,2000,g  9.0,4.0
# From MPEC 2016-EI8
332P-B/Ikeya-Murakami,e,9.3805,3.8028,152.3711,3.082329,0.1821317,0.48970701,359.9699,03/17.0/2016,2000,g 19.0,4.0
# From MPEC 2016-K18
332P-C/Ikeya-Murakami,e,9.3847,152.3056,3.7385,3.086057,0.1818018,0.48984184,248.8062,05/18.0/2025,2000,g 16.5,4.0
# From MPEC 2016-ED0
332P-D/Ikeya-Murakami,e,9.3761,3.7923,152.4393,3.081138,0.1822373,0.48977814,359.9486,03/17.0/2016,2000,g 19.0,4.0
# From MPEC 2016-ED0
332P-E/Ikeya-Murakami,e,9.3774,3.8228,152.2825,3.079877,0.1823493,0.48922008,359.9889,03/17.0/2016,2000,g 21.0,4.0
# From MPEC 2016-ED0
332P-F/Ikeya-Murakami,e,9.5293,3.4757,152.8203,3.163214,0.1751908,0.49918860,359.8501,03/17.0/2016,2000,g 21.0,4.0
# From MPEC 2016-ED0
332P-G/Ikeya-Murakami,e,9.2523,3.6955,154.4000,3.050519,0.1849880,0.49200362,359.9006,03/19.0/2016,2000,g 19.0,4.0
# From MPC100285
332P-H/Ikeya-Murakami,e,9.3852,152.3063,3.7382,3.086237,0.1817858,0.48987776,248.7189,05/18.0/2025,2000,g 19.0,4.0
# From MPEC 2016-ED0
332P-I/Ikeya-Murakami,e,9.3791,3.8048,152.3297,3.081767,0.1821815,0.48955490,359.9360,03/17.0/2016,2000,g 20.5,2.0
# From MPEC 2016-EI8
332P-J/Ikeya-Murakami,e,9.4296,3.6729,152.7712,3.115165,0.1792596,0.49429435,359.8613,03/17.0/2016,2000,g 20.5,2.0
# From MPC182891
333P/LINEAR,e,132.0223,115.7068,26.0201,4.220389,0.1136777,0.73628442,19.2913,05/18.0/2025,2000,g 15.0,4.0
# From MPEC 2023-J29
334P/NEAT,e,20.3649,90.3681,90.0661,6.824677,0.0552816,0.35192916,160.5752,05/18.0/2025,2000,g 10.5,4.0
# From MPEC 2023-M14
335P/Gibbs,e,7.2976,330.7924,162.3202,3.577261,0.1456727,0.54685302,147.0566,05/18.0/2025,2000,g 16.8,4.0
# From MPC105244
336P/McNaught,e,17.8664,298.1744,308.6755,5.035651,0.0872209,0.44594072,264.6936,05/18.0/2025,2000,g 13.5,4.0
# From MPEC 2024-A43
337P/WISE,e,16.9307,102.1763,166.0360,3.336104,0.1617502,0.48556758,170.6675,05/18.0/2025,2000,g 17.0,4.0
# From MPC182891
338P/McNaught,e,25.3763,9.7528,4.6301,3.895686,0.1281823,0.41276685,36.8752,05/18.0/2025,2000,g 12.0,4.0
# From MPC101101
339P/Gibbs,e,5.7345,27.4590,172.6749,3.698575,0.1385646,0.63578448,86.7452,05/18.0/2025,2000,g 17.0,4.0
# From MPC133426
340P/Boattini,e,2.0790,291.6595,36.0652,4.247108,0.1126067,0.27999375,348.3723,05/18.0/2025,2000,g 14.3,4.0
# From MPEC 2023-J29
341P/Gibbs,e,3.7965,29.9527,312.3615,4.284937,0.1111188,0.41506152,2.8105,05/18.0/2025,2000,g 12.5,4.0
# From MPC101101
342P/SOHO,e,11.6906,73.3099,27.6496,3.040813,0.1858743,0.98297979,0.0000,02/07.6880/2027,2000,g  9.0,4.0
# From MPEC 2024-PC5
343P/NEAT-LONEOS,e,5.5976,257.0545,137.6079,5.457938,0.0772967,0.58484373,233.8845,05/18.0/2025,2000,g 14.0,4.0
# From MPEC 2023-J29
344P/Read,e,3.4996,273.1014,140.6221,4.855096,0.0921313,0.42374684,286.4956,05/18.0/2025,2000,g 13.0,4.0
# From MPEC 2024-TP3
345P/LINEAR,e,2.7280,154.5082,196.7467,4.032070,0.1217340,0.22131924,31.6573,05/18.0/2025,2000,g 12.0,4.0
# From MPEC 2022-K19
346P/Catalina,e,22.2194,102.4580,336.0741,4.467946,0.1043620,0.50391204,314.0548,05/18.0/2025,2000,g 14.0,4.0
# From MPEC 2024-RQ6
347P/PANSTARRS,e,11.7661,260.9920,98.1021,3.600243,0.1442800,0.38693682,96.4849,05/18.0/2025,2000,g 15.0,4.0
# From MPEC 2022-ED3
348P/PANSTARRS,e,17.7425,312.9130,135.7736,3.151633,0.1761573,0.30749463,209.5390,05/18.0/2025,2000,g 14.0,4.0
# From MPEC 2024-LE0
349P/Lemmon,e,5.4891,331.7389,255.7529,3.578074,0.1456230,0.29859241,51.8478,05/18.0/2025,2000,g 14.0,4.0
# From MPEC 2025-GB9
350P/McNaught,e,7.3655,65.2954,140.0498,4.080836,0.1195585,0.09469912,323.7297,05/18.0/2025,2000,g 14.0,4.0
# From MPEC 2025-J92
351P/Wiegert-PANSTARRS,e,12.7788,283.3862,352.5598,4.440727,0.1053229,0.29473918,5.5641,05/18.0/2025,2000,g 12.5,4.0
# From MPEC 2023-J29
352P/Skiff,e,21.0041,28.0490,309.3734,6.655452,0.0574034,0.61600198,165.9123,05/18.0/2025,2000,g 13.2,4.0
# From MPEC 2020-AA5
353P/McNaught,e,28.4190,121.5099,230.4860,4.170883,0.1157076,0.46971863,312.6215,05/18.0/2025,2000,g 14.5,4.0
# From MPEC 2024-EF7
354P/LINEAR,e,5.2507,320.0592,132.9332,2.290355,0.2843479,0.12444902,165.4218,05/18.0/2025,2000,g 15.5,4.0
# From MPEC 2023-CD7
355P/LINEAR-NEAT,e,11.0460,51.4248,336.2613,3.467231,0.1526616,0.50796638,62.8580,05/18.0/2025,2000,g 15.5,2.0
# From MPEC 2022-F14
356P/WISE,e,9.6418,160.7918,226.2135,4.152430,0.1164798,0.35587848,314.5364,05/18.0/2025,2000,g 14.0,4.0
# From MPC114609
357P/Hill,e,6.3126,44.5687,1.5035,4.455044,0.1048157,0.43602002,266.2292,05/18.0/2025,2000,g 15.5,4.0
# From MPEC 2024-EF7
358P/PANSTARRS,e,11.0668,85.6674,299.3386,3.145776,0.1766495,0.23947922,98.1217,05/18.0/2025,2000,g 18.0,4.0
# From MPC110086
359P/LONEOS,e,10.2618,149.7464,200.2827,4.642488,0.0985321,0.32312979,278.3736,05/18.0/2025,2000,g 13.5,4.0
# From MPEC 2025-A40
360P/WISE,e,24.1057,2.1616,354.3182,3.698765,0.1385539,0.49936112,31.3383,05/18.0/2025,2000,g 19.5,6.0
# From MPEC 2023-CD7
361P/Spacewatch,e,13.8977,203.2301,219.1297,4.932999,0.0899575,0.43953305,225.4604,05/18.0/2025,2000,g 12.0,4.0
# From MPEC 2025-GB9
363P/Lemmon,e,5.3938,146.7586,340.7613,3.574611,0.1458347,0.51855720,27.0930,05/18.0/2025,2000,g 17.5,4.0
# From MPEC 2024-M41
